{
  "type": "FeatureCollection",
  "features": [
    {
      "type": "Feature",
      "properties": {
        "norad_id": 33412,
        "name": "COSMO-SKYMED 3",
        "group": "resource",
        "lat": 22.07366076988497,
        "lon": 33.60954089106354,
        "alt_km": 539.434960722293,
        "timestamp": "2025-12-25T19:00:39.004846+00:00",
        "meta_object_name": "COSMO-SKYMED 3",
        "meta_object_id": "2008-054A",
        "meta_epoch": "2025-12-25T07:08:51.977184",
        "meta_mean_motion": 15.05458802,
        "meta_eccentricity": 0.00171062,
        "meta_inclination": 97.8452,
        "meta_ra_of_asc_node": 209.9018,
        "meta_arg_of_pericenter": 131.0768,
        "meta_mean_anomaly": 229.1939,
        "meta_ephemeris_type": 0,
        "meta_classification_type": "U",
        "meta_norad_cat_id": 33412,
        "meta_element_set_no": 999,
        "meta_rev_at_epoch": 93076,
        "meta_bstar": 0.00019873483,
        "meta_mean_motion_dot": 2.798e-05,
        "meta_mean_motion_ddot": 0,
        "tle_line1": "1 33412U 08054A   25359.29782381  .00002798  00000+0  19873-3 0  9990",
        "tle_line2": "2 33412  97.8452 209.9018 0017106 131.0768 229.1939 15.05458802930768"
      },
      "geometry": {
        "type": "Point",
        "coordinates": [
          33.60954089106354,
          22.07366076988497
        ]
      }
    },
    {
      "type": "Feature",
      "properties": {
        "norad_id": 33446,
        "name": "YAOGAN-4",
        "group": "resource",
        "lat": 26.537481503317714,
        "lon": 113.7506171913087,
        "alt_km": 624.8849451192809,
        "timestamp": "2025-12-25T19:00:39.004857+00:00",
        "meta_object_name": "YAOGAN-4",
        "meta_object_id": "2008-061A",
        "meta_epoch": "2025-12-25T06:59:02.368032",
        "meta_mean_motion": 14.82718056,
        "meta_eccentricity": 0.00129714,
        "meta_inclination": 97.9197,
        "meta_ra_of_asc_node": 289.268,
        "meta_arg_of_pericenter": 278.7687,
        "meta_mean_anomaly": 81.2057,
        "meta_ephemeris_type": 0,
        "meta_classification_type": "U",
        "meta_norad_cat_id": 33446,
        "meta_element_set_no": 999,
        "meta_rev_at_epoch": 91989,
        "meta_bstar": 0.00017932841,
        "meta_mean_motion_dot": 1.395e-05,
        "meta_mean_motion_ddot": 0,
        "tle_line1": "1 33446U 08061A   25359.29099963  .00001395  00000+0  17933-3 0  9999",
        "tle_line2": "2 33446  97.9197 289.2680 0012971 278.7687  81.2057 14.82718056919895"
      },
      "geometry": {
        "type": "Point",
        "coordinates": [
          113.7506171913087,
          26.537481503317714
        ]
      }
    },
    {
      "type": "Feature",
      "properties": {
        "norad_id": 33492,
        "name": "GOSAT (IBUKI)",
        "group": "resource",
        "lat": -33.90344783591073,
        "lon": -77.26259329341735,
        "alt_km": 675.3746320649952,
        "timestamp": "2025-12-25T19:00:39.004867+00:00",
        "meta_object_name": "GOSAT (IBUKI)",
        "meta_object_id": "2009-002A",
        "meta_epoch": "2025-12-24T22:24:05.710752",
        "meta_mean_motion": 14.67547953,
        "meta_eccentricity": 0.00010269,
        "meta_inclination": 98.0771,
        "meta_ra_of_asc_node": 107.3673,
        "meta_arg_of_pericenter": 104.9727,
        "meta_mean_anomaly": 255.1592,
        "meta_ephemeris_type": 0,
        "meta_classification_type": "U",
        "meta_norad_cat_id": 33492,
        "meta_element_set_no": 999,
        "meta_rev_at_epoch": 90590,
        "meta_bstar": 0.00016218085,
        "meta_mean_motion_dot": 8.72e-06,
        "meta_mean_motion_ddot": 0,
        "tle_line1": "1 33492U 09002A   25358.93339943  .00000872  00000+0  16218-3 0  9995",
        "tle_line2": "2 33492  98.0771 107.3673 0001026 104.9727 255.1592 14.67547953905904"
      },
      "geometry": {
        "type": "Point",
        "coordinates": [
          -77.26259329341735,
          -33.90344783591073
        ]
      }
    },
    {
      "type": "Feature",
      "properties": {
        "norad_id": 35681,
        "name": "DEIMOS-1",
        "group": "resource",
        "lat": -77.67619398415758,
        "lon": -161.85434309115337,
        "alt_km": 653.9011439547803,
        "timestamp": "2025-12-25T19:00:39.004879+00:00",
        "meta_object_name": "DEIMOS-1",
        "meta_object_id": "2009-041A",
        "meta_epoch": "2025-12-25T06:20:58.631136",
        "meta_mean_motion": 14.74969571,
        "meta_eccentricity": 0.00024802,
        "meta_inclination": 97.7157,
        "meta_ra_of_asc_node": 159.2854,
        "meta_arg_of_pericenter": 60.1323,
        "meta_mean_anomaly": 300.0133,
        "meta_ephemeris_type": 0,
        "meta_classification_type": "U",
        "meta_norad_cat_id": 35681,
        "meta_element_set_no": 999,
        "meta_rev_at_epoch": 88124,
        "meta_bstar": 6.8820495e-05,
        "meta_mean_motion_dot": 4.15e-06,
        "meta_mean_motion_ddot": 0,
        "tle_line1": "1 35681U 09041A   25359.26456749  .00000415  00000+0  68820-4 0  9991",
        "tle_line2": "2 35681  97.7157 159.2854 0002480  60.1323 300.0133 14.74969571881240"
      },
      "geometry": {
        "type": "Point",
        "coordinates": [
          -161.85434309115337,
          -77.67619398415758
        ]
      }
    },
    {
      "type": "Feature",
      "properties": {
        "norad_id": 35682,
        "name": "DUBAISAT-1",
        "group": "resource",
        "lat": -18.68197564028292,
        "lon": -52.438408109938024,
        "alt_km": 649.0406293434507,
        "timestamp": "2025-12-25T19:00:39.004890+00:00",
        "meta_object_name": "DUBAISAT-1",
        "meta_object_id": "2009-041B",
        "meta_epoch": "2025-12-25T06:42:42.658560",
        "meta_mean_motion": 14.74637605,
        "meta_eccentricity": 0.00092689,
        "meta_inclination": 97.9798,
        "meta_ra_of_asc_node": 129.7754,
        "meta_arg_of_pericenter": 269.3477,
        "meta_mean_anomaly": 90.6669,
        "meta_ephemeris_type": 0,
        "meta_classification_type": "U",
        "meta_norad_cat_id": 35682,
        "meta_element_set_no": 999,
        "meta_rev_at_epoch": 87946,
        "meta_bstar": 0.00021140386,
        "meta_mean_motion_dot": 1.36e-05,
        "meta_mean_motion_ddot": 0,
        "tle_line1": "1 35682U 09041B   25359.27966040  .00001360  00000+0  21140-3 0  9996",
        "tle_line2": "2 35682  97.9798 129.7754 0009268 269.3477  90.6669 14.74637605879466"
      },
      "geometry": {
        "type": "Point",
        "coordinates": [
          -52.438408109938024,
          -18.68197564028292
        ]
      }
    },
    {
      "type": "Feature",
      "properties": {
        "norad_id": 35931,
        "name": "OCEANSAT-2",
        "group": "resource",
        "lat": 78.83987783646259,
        "lon": -133.80483314005062,
        "alt_km": 887.1141387930484,
        "timestamp": "2025-12-25T19:00:39.004901+00:00",
        "meta_object_name": "OCEANSAT-2",
        "meta_object_id": "2009-051A",
        "meta_epoch": "2025-12-25T06:32:15.176832",
        "meta_mean_motion": 13.99622902,
        "meta_eccentricity": 0.00158962,
        "meta_inclination": 98.2218,
        "meta_ra_of_asc_node": 358.6012,
        "meta_arg_of_pericenter": 12.0971,
        "meta_mean_anomaly": 348.0575,
        "meta_ephemeris_type": 0,
        "meta_classification_type": "U",
        "meta_norad_cat_id": 35931,
        "meta_element_set_no": 999,
        "meta_rev_at_epoch": 85500,
        "meta_bstar": 1.1633208e-05,
        "meta_mean_motion_dot": -2e-07,
        "meta_mean_motion_ddot": 0,
        "tle_line1": "1 35931U 09051A   25359.27239788 -.00000020  00000+0  11633-4 0  9996",
        "tle_line2": "2 35931  98.2218 358.6012 0015896  12.0971 348.0575 13.99622902855000"
      },
      "geometry": {
        "type": "Point",
        "coordinates": [
          -133.80483314005062,
          78.83987783646259
        ]
      }
    },
    {
      "type": "Feature",
      "properties": {
        "norad_id": 35946,
        "name": "WORLDVIEW-2 (WV-2)",
        "group": "resource",
        "lat": -26.75564013038764,
        "lon": -113.61490678600545,
        "alt_km": 775.0015775972342,
        "timestamp": "2025-12-25T19:00:39.004912+00:00",
        "meta_object_name": "WORLDVIEW-2 (WV-2)",
        "meta_object_id": "2009-055A",
        "meta_epoch": "2025-12-25T04:41:21.336576",
        "meta_mean_motion": 14.3772943,
        "meta_eccentricity": 0.00047081,
        "meta_inclination": 98.4772,
        "meta_ra_of_asc_node": 70.1089,
        "meta_arg_of_pericenter": 39.8623,
        "meta_mean_anomaly": 320.2909,
        "meta_ephemeris_type": 0,
        "meta_classification_type": "U",
        "meta_norad_cat_id": 35946,
        "meta_element_set_no": 999,
        "meta_rev_at_epoch": 85064,
        "meta_bstar": 7.3698502e-05,
        "meta_mean_motion_dot": 1.78e-06,
        "meta_mean_motion_ddot": 0,
        "tle_line1": "1 35946U 09055A   25359.19538584  .00000178  00000+0  73699-4 0  9996",
        "tle_line2": "2 35946  98.4772  70.1089 0004708  39.8623 320.2909 14.37729430850649"
      },
      "geometry": {
        "type": "Point",
        "coordinates": [
          -113.61490678600545,
          -26.75564013038764
        ]
      }
    }
  ]
}